H1 CPF  1  HTS 2005 12  2 12   836    lageos1       NONE
H2  7603901 1155     8820 2005 12 02  0  0  0 2005 12 10  0  0  0   300 1 1  0 0 0
H5  0.2510 
H9 
10 0 53712  82800.00000  0      -3086977.205       3461117.664     -11425609.681
20 0         2556.050526         5324.242924          919.108259
10 0 53712  83100.00000  0      -2259723.654       5003609.632     -11041688.185
20 0         2947.608486         4940.209766         1636.293846
10 0 53712  83400.00000  0      -1325814.420       6414486.593     -10446944.935
20 0         3265.203734         4448.687919         2322.382157
10 0 53712  83700.00000  0       -309039.553       7663309.070      -9652662.406
20 0         3498.487484         3862.103937         2964.460987
10 0 53712  84000.00000  0        764013.433       8723691.566      -8673887.063
20 0         3639.202836         3195.005926         3550.385379
10 0 53712  84300.00001  0       1864624.498       9573890.147      -7529167.073
20 0         3681.426064         2463.730489         4068.990393
10 0 53712  84600.00000  0       2962671.011      10197283.870      -6240227.507
20 0         3621.757590         1686.028832         4510.294571
10 0 53712  84900.00000  0       4027406.637      10582738.569      -4831586.292
20 0         3459.456309          880.657432         4865.690924
10 0 53712  85200.00000  0       5028271.283      10724843.358      -3330115.227
20 0         3196.511410           66.940000         5128.121459
10 0 53712  85500.00000  0       5935712.580      10624012.414      -1764551.669
20 0         2837.646786         -735.691010         5292.230669
10 0 53712  85800.00000  0       6721998.129      10286447.379       -164967.946
20 0         2390.254576        -1508.163458         5354.493119
10 0 53712  86100.00000  0       7361996.946       9723958.835       1437793.030
20 0         1864.256212        -2232.233914         5313.310368
10 0 53713      0.00000  0       7833908.396       8953648.887       3012706.073
20 0         1271.891543        -2890.943172         5169.072901
10 0 53713    300.00000  0       8119917.390       7997460.608       4529164.896
20 0          627.438862        -3469.046150         4924.183378
10 0 53713    600.00001  0       8206755.870       6881603.970       5957584.083
20 0          -53.128810        -3953.403291         4583.038317
10 0 53713    900.00000  0       8086152.573       5635871.700       7269989.105
20 0         -752.543248        -4333.320982         4151.966566
10 0 53713   1200.00000  0       7755155.833       4292862.099       8440581.363
20 0        -1452.686026        -4600.829634         3639.124429
10 0 53713   1500.00000  0       7216317.571       2887128.988       9446265.422
20 0        -2135.066776        -4750.890012         3054.348868
10 0 53713   1800.00000  0       6477730.500       1454281.453      10267126.250
20 0        -2781.321155        -4781.520672         2408.971546
10 0 53713   2100.00000  0       5552914.763         30057.771      10886845.271
20 0        -3373.714191        -4693.841989         1715.597594
10 0 53713   2400.00000  0       4460554.593      -1350601.067      11293045.339
20 0        -3895.634406        -4492.034877          987.853856
10 0 53713   2700.00000  0       3224089.933      -2654452.733      11477556.275
20 0        -4332.064235        -4183.214911          240.112002
10 0 53713   3000.00000  0       1871172.241      -3850804.824      11436594.297
20 0        -4670.012695        -3777.224916         -512.807622
10 0 53713   3300.00001  0        432997.861      -4912292.328      11170850.538
20 0        -4898.896896        -3286.351483        -1255.944743
10 0 53713   3600.00000  0      -1056463.890      -5815559.611      10685485.938
20 0        -5010.860442        -2724.973418        -1974.513305
10 0 53713   3900.00000  0      -2561327.382      -6541827.965       9990032.017
20 0        -5001.018675        -2109.152352        -2654.213689
10 0 53713   4200.00000  0      -4044708.925      -7077333.147       9098199.136
20 0        -4867.622710        -1456.177330        -3281.536020
10 0 53713   4500.00000  0      -5469681.238      -7413620.994       8027595.982
20 0        -4612.136060         -784.076424        -3844.047474
10 0 53713   4800.00000  0      -6800237.272      -7547693.351       6799366.206
20 0        -4239.219979         -111.109730        -4330.656064
10 0 53713   5100.00000  0      -8002235.842      -7482001.067       5437750.389
20 0        -3756.626991          544.740535        -4731.843410
10 0 53713   5400.00000  0      -9044301.869      -7224285.593       3969583.670
20 0        -3175.005662         1166.266780        -5039.859962
10 0 53713   5700.00000  0      -9898655.510      -6787275.485       2423741.097
20 0        -2507.622943         1737.504009        -5248.877512
10 0 53713   6000.00001  0     -10541846.732      -6188248.675        830544.126
20 0        -1770.013287         2244.154547        -5355.095186
10 0 53713   6300.00000  0     -10955375.092      -5448475.429       -778857.391
20 0         -979.566437         2673.956675        -5356.796640
10 0 53713   6600.00000  0     -11126178.417      -4592560.489      -2373112.985
20 0         -155.068102         3016.986547        -5254.358046
10 0 53713   6900.00000  0     -11046978.561      -3647705.667      -3921294.532
20 0          683.790821         3265.885655        -5050.208446
10 0 53713   7200.00000  0     -10716477.222      -2642915.955      -5393500.600
20 0         1516.920363         3416.009370        -4748.746051
10 0 53713   7500.00000  0     -10139399.591      -1608173.099      -6761429.696
20 0         2324.337476         3465.495404        -4356.215491
10 0 53713   7800.00000  0      -9326387.972       -573600.464      -7998911.551
20 0         3086.657852         3415.253971        -3880.551873
10 0 53713   8100.00000  0      -8293751.575        431357.920      -9082387.428
20 0         3785.561223         3268.883865        -3331.197903
10 0 53713   8400.00000  0      -7063081.993       1378722.757      -9991332.318
20 0         4404.219818         3032.520628        -2718.900450
10 0 53713   8700.00001  0      -5660746.717       2242710.107     -10708613.797
20 0         4927.681985         2714.624522        -2055.492652
10 0 53713   9000.00000  0      -4117275.008       3000390.436     -11220784.022
20 0         5343.205312         2325.716852        -1353.666897
10 0 53713   9300.00000  0      -2466651.906       3632261.908     -11518302.804
20 0         5640.535524         1878.073447         -626.742933
10 0 53713   9600.00000  0       -745536.990       4122726.375     -11595690.775
20 0         5812.128913         1385.383849          111.565789
10 0 53713   9900.00000  0       1007574.932       4460459.008     -11451612.478
20 0         5853.316878          862.384356          847.385460
10 0 53713  10200.00000  0       2753233.691       4638664.862     -11088889.658
20 0         5762.411592          324.472525         1566.913611
10 0 53713  10500.00000  0       4451936.362       4655217.947     -10514445.429
20 0         5540.751775         -212.689538         2256.648188
10 0 53713  10800.00000  0       6065034.463       4512680.488      -9739180.258
20 0         5192.687689         -733.575889         2903.612873
10 0 53713  11100.00000  0       7555627.665       4218202.295      -8777780.945
20 0         4725.504548        -1223.194138         3495.577491
10 0 53713  11400.00001  0       8889424.778       3783302.345      -7648464.729
20 0         4149.284136        -1667.472011         4021.271374
10 0 53713  11700.00000  0      10035554.409       3223536.995      -6372660.394
20 0         3476.704491        -2053.625265         4470.587872
10 0 53713  12000.00000  0      10967306.122       2558061.634      -4974629.915
20 0         2722.778800        -2370.498744         4834.776518
10 0 53713  12300.00000  0      11662784.453       1809095.110      -3481034.721
20 0         1904.535700        -2608.872096         5106.619247
10 0 53713  12600.00000  0      12105458.688       1001298.820      -1920452.028
20 0         1040.644863        -2761.721520         5280.586197
10 0 53713  12900.00000  0      12284592.824        161084.930       -322848.110
20 0          150.993831        -2824.429156         5352.966259
10 0 53713  13200.00000  0      12195542.257       -684129.404       1280983.206
20 0         -743.775759        -2794.932428         5321.967508
10 0 53713  13500.00000  0      11839906.513      -1506702.765       2860007.088
20 0        -1622.762307        -2673.806804         5187.783002
10 0 53713  13800.00000  0      11225530.671      -2279564.412       4383548.273
20 0        -2465.316582        -2464.277062         4952.617993
10 0 53713  14100.00001  0      10366352.073      -2977001.487       5821893.655
20 0        -3251.558427        -2172.154198         4620.675618
10 0 53713  14400.00000  0       9282093.214      -3575416.054       7146884.111
20 0        -3962.883048        -1805.697562         4198.099450
10 0 53713  14700.00000  0       7997806.181      -4054029.800       8332482.601
20 0        -4582.441840        -1375.404375         3692.872802
10 0 53713  15000.00000  0       6543278.497      -4395515.257       9355305.709
20 0        -5095.583263         -893.731308         3114.675986
10 0 53713  15300.00000  0       4952314.399      -4586534.155      10195106.340
20 0        -5490.240213         -374.755197         2474.704012
10 0 53713  15600.00000  0       3261909.455      -4618165.994      10835196.252
20 0        -5757.251846          166.217915         1785.448415
10 0 53713  15900.00000  0       1511339.759      -4486212.933      11262798.321
20 0        -5890.609795          713.084335         1060.447956
10 0 53713  16200.00000  0       -258810.406      -4191370.674      11469320.055
20 0        -5887.621069         1249.402403          314.013772
99